NORAD_CAT_ID,OBJECT_NAME,OBJECT_TYPE,EPOCH,MEAN_MOTION,ECCENTRICITY,INCLINATION,RA_OF_ASC_NODE,ARG_OF_PERICENTER,MEAN_ANOMALY,BSTAR,MEAN_MOTION_DOT,MEAN_MOTION_DDOT,TLE_LINE0,TLE_LINE1,TLE_LINE2,SEMIMAJOR_AXIS,PERIOD,APOGEE,PERIGEE,DECAYED
53391.0,STARLINK-4521,PAYLOAD,2023-08-07 19:08:46,15.08854159,0.0001045,53.2175,45.9056,143.834,216.2723,-2.2592e-05,-6.47e-06,0.0,0 STARLINK-4521,1 53391U 22097D   23219.79776043 -.00000647  00000-0 -22592-4 0  9994,2 53391  53.2175  45.9056 0001045 143.8340 216.2723 15.08854159 55377,6917.837,95.437,540.425,538.979,0.0
53391.0,STARLINK-4521,PAYLOAD,2023-08-08 11:02:37,15.08841758,8.65e-05,53.2177,42.9313,92.1104,267.9987,0.00029831,4.463e-05,0.0,0 STARLINK-4521,1 53391U 22097D   23220.46016049  .00004463  00000-0  29831-3 0  9993,2 53391  53.2177  42.9313 0000865  92.1104 267.9987 15.08841758 55472,6917.875,95.437,540.338,539.142,0.0
53391.0,STARLINK-4521,PAYLOAD,2023-08-09 04:31:53,15.08834944,0.0001002,53.2181,39.6591,91.7969,268.3138,0.00013679,1.89e-05,0.0,0 STARLINK-4521,1 53391U 22097D   23221.18881365  .00001890  00000-0  13679-3 0  9998,2 53391  53.2181  39.6591 0001002  91.7969 268.3138 15.08834944 55580,6917.896,95.438,540.454,539.068,0.0
53391.0,STARLINK-4521,PAYLOAD,2023-08-09 18:50:21,15.08844346,9.31e-05,53.2165,36.9852,103.6047,256.5049,1.8823e-05,1.2e-07,0.0,0 STARLINK-4521,1 53391U 22097D   23221.78496629  .00000012  00000-0  18823-4 0  9991,2 53391  53.2165  36.9852 0000931 103.6047 256.5049 15.08844346 55679,6917.867,95.437,540.376,539.088,0.0
53391.0,STARLINK-4521,PAYLOAD,2023-08-10 20:16:31,15.08842948,0.0001061,53.2181,32.2284,109.4399,250.6708,1.6813e-05,-2e-07,0.0,0 STARLINK-4521,1 53391U 22097D   23222.84480638 -.00000020  00000-0  16813-4 0  9999,2 53391  53.2181  32.2284 0001061 109.4399 250.6708 15.08842948 55835,6917.871,95.437,540.47,539.002,0.0
53391.0,STARLINK-4521,PAYLOAD,2023-08-11 10:34:59,15.08835239,8.49e-05,53.2186,29.5518,98.4702,261.6386,0.00010049,1.312e-05,0.0,0 STARLINK-4521,1 53391U 22097D   23223.44097168  .00001312  00000-0  10049-3 0  9996,2 53391  53.2186  29.5518 0000849  98.4702 261.6386 15.08835239 55926,6917.895,95.438,540.347,539.173,0.0
53391.0,STARLINK-4521,PAYLOAD,2023-08-11 23:18:04,15.08847394,8.38e-05,53.218,27.1725,90.4085,269.7003,0.00018167,2.605e-05,0.0,0 STARLINK-4521,1 53391U 22097D   23223.97088576  .00002605  00000-0  18167-3 0  9992,2 53391  53.2180  27.1725 0000838  90.4085 269.7003 15.08847394 56008,6917.858,95.437,540.303,539.143,0.0
53391.0,STARLINK-4521,PAYLOAD,2023-08-12 10:25:47,15.08833025,4.28e-05,53.218,25.0909,99.3751,260.7289,2.8248e-05,1.62e-06,0.0,0 STARLINK-4521,1 53391U 22097D   23224.43457304  .00000162  00000-0  28248-4 0  9991,2 53391  53.2180  25.0909 0000428  99.3751 260.7289 15.08833025 56072,6917.902,95.438,540.063,539.471,0.0
53391.0,STARLINK-4521,PAYLOAD,2023-08-12 19:58:05,15.08850221,7.97e-05,53.2172,23.306,88.8408,271.2676,0.00020656,3.002e-05,0.0,0 STARLINK-4521,1 53391U 22097D   23224.83200545  .00003002  00000-0  20656-3 0  9998,2 53391  53.2172  23.3060 0000797  88.8408 271.2676 15.08850221 56134,6917.849,95.437,540.266,539.163,0.0
53391.0,STARLINK-4521,PAYLOAD,2023-08-13 10:16:34,15.08833422,7.47e-05,53.2173,20.6302,66.1294,293.9776,-1.0036e-05,-4.47e-06,0.0,0 STARLINK-4521,1 53391U 22097D   23225.42817333 -.00000447  00000-0 -10036-4 0  9997,2 53391  53.2173  20.6302 0000747  66.1294 293.9776 15.08833422 56227,6917.9,95.438,540.282,539.249,0.0
53391.0,STARLINK-4521,PAYLOAD,2023-08-13 16:38:06,15.08844559,8.85e-05,53.2165,19.4405,84.3567,275.7526,0.00035654,5.392e-05,0.0,0 STARLINK-4521,1 53391U 22097D   23225.69313081  .00005392  00000-0  35654-3 0  9991,2 53391  53.2165  19.4405 0000885  84.3567 275.7526 15.08844559 56264,6917.866,95.437,540.344,539.119,0.0
53391.0,STARLINK-4521,PAYLOAD,2023-08-14 10:07:21,15.08843401,0.0001053,53.2167,16.1701,84.9797,275.1315,0.00056568,8.727e-05,0.0,0 STARLINK-4521,1 53391U 22097D   23226.42177328  .00008727  00000-0  56568-3 0  9997,2 53391  53.2167  16.1701 0001053  84.9797 275.1315 15.08843401 56375,6917.87,95.437,540.463,539.007,0.0
53391.0,STARLINK-4521,PAYLOAD,2023-08-15 16:19:40,15.08847629,0.000161,53.2152,10.5176,93.102,267.0157,0.00028489,4.25e-05,0.0,0 STARLINK-4521,1 53391U 22097D   23227.68033074  .00004250  00000-0  28489-3 0  9993,2 53391  53.2152  10.5176 0001610  93.1020 267.0157 15.08847629 56564,6917.857,95.437,540.836,538.608,0.0
53391.0,STARLINK-4521,PAYLOAD,2023-08-16 09:48:55,15.08838312,0.0001491,53.216,7.2462,93.8846,266.2317,-6.6753e-06,-3.94e-06,0.0,0 STARLINK-4521,1 53391U 22097D   23228.40897360 -.00000394  00000-0 -66753-5 0  9995,2 53391  53.2160   7.2462 0001491  93.8846 266.2317 15.08838312 56674,6917.886,95.438,540.782,538.719,0.0
53391.0,STARLINK-4521,PAYLOAD,2023-08-17 16:01:14,15.08847978,9.92e-05,53.2165,1.5999,97.2195,262.891,7.3339e-05,8.8e-06,0.0,0 STARLINK-4521,1 53391U 22097D   23229.66752814  .00000880  00000-0  73339-4 0  9993,2 53391  53.2165   1.5999 0000992  97.2195 262.8910 15.08847978 56861,6917.856,95.437,540.407,539.035,0.0
53391.0,STARLINK-4521,PAYLOAD,2023-08-18 09:30:30,15.08826103,0.0001044,53.2173,358.329,80.5534,279.5576,-6.4117e-05,-1.308e-05,0.0,0 STARLINK-4521,1 53391U 22097D   23230.39618121 -.00001308  00000-0 -64117-4 0  9999,2 53391  53.2173 358.3290 0001044  80.5534 279.5576 15.08826103 56970,6917.923,95.438,540.51,539.066,0.0
53391.0,STARLINK-4521,PAYLOAD,2023-08-18 15:52:02,15.08835982,9.5e-05,53.2172,357.1399,80.7664,279.3436,7.0153e-06,-1.76e-06,0.0,0 STARLINK-4521,1 53391U 22097D   23230.66113704 -.00000176  00000-0  70153-5 0  9995,2 53391  53.2172 357.1399 0000950  80.7664 279.3436 15.08835982 57011,6917.893,95.438,540.415,539.1,0.0
53391.0,STARLINK-4521,PAYLOAD,2023-08-20 12:22:50,15.0884154,0.0001028,53.217,348.814,66.1079,294.0021,0.00025937,3.843e-05,0.0,0 STARLINK-4521,1 53391U 22097D   23232.51586102  .00003843  00000-0  25937-3 0  9998,2 53391  53.2170 348.8140 0001028  66.1079 294.0021 15.08841540 57296,6917.876,95.437,540.452,539.03,0.0
53391.0,STARLINK-4521,PAYLOAD,2023-08-21 13:49:00,15.08843194,0.0001261,53.2174,344.0578,60.2274,299.8843,0.0001075,1.424e-05,0.0,0 STARLINK-4521,1 53391U 22097D   23233.57570090  .00001424  00000-0  10750-3 0  9994,2 53391  53.2174 344.0578 0001261  60.2274 299.8843 15.08843194 57454,6917.871,95.437,540.608,538.863,0.0
53391.0,STARLINK-4521,PAYLOAD,2023-08-22 12:04:24,15.0883853,0.0001213,53.2181,339.8954,64.6651,295.4467,8.8597e-05,1.122e-05,0.0,0 STARLINK-4521,1 53391U 22097D   23234.50306426  .00001122  00000-0  88597-4 0  9998,2 53391  53.2181 339.8954 0001213  64.6651 295.4467 15.08838530 57593,6917.885,95.438,540.589,538.911,0.0
53391.0,STARLINK-4521,PAYLOAD,2023-08-24 11:45:58,15.08839484,0.0001299,53.2196,330.9736,103.4453,256.6683,8.5774e-05,1.077e-05,0.0,0 STARLINK-4521,1 53391U 22097D   23236.49026274  .00001077  00000-0  85774-4 0  9991,2 53391  53.2196 330.9736 0001299 103.4453 256.6683 15.08839484 58549,6917.882,95.438,540.646,538.848,0.0
53391.0,STARLINK-4521,PAYLOAD,2023-08-25 13:12:08,15.08841403,0.0001142,53.2177,326.2157,90.8321,269.2802,4.735e-05,4.66e-06,0.0,0 STARLINK-4521,1 53391U 22097D   23237.55010262  .00000466  00000-0  47350-4 0  9998,2 53391  53.2177 326.2157 0001142  90.8321 269.2802 15.08841403 58708,6917.876,95.437,540.531,538.951,0.0
53391.0,STARLINK-4521,PAYLOAD,2023-08-26 09:52:10,15.08834455,0.0001174,53.2175,322.3496,93.9314,266.1812,2.888e-05,1.72e-06,0.0,0 STARLINK-4521,1 53391U 22097D   23238.41122938  .00000172  00000-0  28880-4 0  9999,2 53391  53.2175 322.3496 0001174  93.9314 266.1812 15.08834455 58188,6917.897,95.438,540.574,538.95,0.0
53391.0,STARLINK-4521,PAYLOAD,2023-08-26 11:27:33,15.08836652,0.0001125,53.2176,322.0516,93.5692,266.5429,3.7744e-05,3.13e-06,0.0,0 STARLINK-4521,1 53391U 22097D   23238.47746796  .00000313  00000-0  37744-4 0  9995,2 53391  53.2176 322.0516 0001125  93.5692 266.5429 15.08836652 58842,6917.891,95.438,540.534,538.977,0.0
53391.0,STARLINK-4521,PAYLOAD,2023-08-26 16:13:42,15.08841544,0.0001706,53.2176,321.1582,112.3039,247.8134,7.8973e-05,9.69e-06,0.0,0 STARLINK-4521,1 53391U 22097D   23238.67618356  .00000969  00000-0  78973-4 0  9993,2 53391  53.2176 321.1582 0001706 112.3039 247.8134 15.08841544 58228,6917.876,95.437,540.921,538.56,0.0
53391.0,STARLINK-4521,PAYLOAD,2023-08-27 09:42:57,15.08836959,0.0001212,53.2174,317.8878,95.8154,264.2976,5.2699e-05,5.51e-06,0.0,0 STARLINK-4521,1 53391U 22097D   23239.40482948  .00000551  00000-0  52699-4 0  9995,2 53391  53.2174 317.8878 0001212  95.8154 264.2976 15.08836959 58334,6917.89,95.438,540.593,538.916,0.0
53391.0,STARLINK-4521,PAYLOAD,2023-08-27 12:53:43,15.0883764,0.0001228,53.2176,317.292,93.3558,266.7575,7.6697e-05,9.33e-06,0.0,0 STARLINK-4521,1 53391U 22097D   23239.53730885  .00000933  00000-0  76697-4 0  9993,2 53391  53.2176 317.2920 0001228  93.3558 266.7575 15.08837640 59001,6917.888,95.438,540.602,538.903,0.0
53391.0,STARLINK-4521,PAYLOAD,2023-08-28 11:09:07,15.08840126,0.0001179,53.2174,313.13,95.0521,265.0606,8.0291e-05,9.9e-06,0.0,0 STARLINK-4521,1 53391U 22097D   23240.46466842  .00000990  00000-0  80291-4 0  9994,2 53391  53.2174 313.1300 0001179  95.0521 265.0606 15.08840126 58492,6917.88,95.438,540.561,538.929,0.0
53391.0,STARLINK-4521,PAYLOAD,2023-08-28 12:44:30,15.08843641,0.0001239,53.2176,312.8327,93.0982,267.0152,0.00010712,1.418e-05,0.0,0 STARLINK-4521,1 53391U 22097D   23240.53090566  .00001418  00000-0  10712-3 0  9994,2 53391  53.2176 312.8327 0001239  93.0982 267.0152 15.08843641 59152,6917.869,95.437,540.591,538.877,0.0
53391.0,STARLINK-4521,PAYLOAD,2023-08-29 09:24:30,15.08866739,0.0001114,53.2173,308.968,78.7784,281.3333,-0.00025642,-4.369e-05,0.0,0 STARLINK-4521,1 53391U 22097D   23241.39202065 -.00004369  00000-0 -25642-3 0  9996,2 53391  53.2173 308.9680 0001114  78.7784 281.3333 15.08866739 58634,6917.799,95.436,540.434,538.893,0.0
